NORAD_CAT_ID,OBJECT_NAME,OBJECT_TYPE,EPOCH,MEAN_MOTION,ECCENTRICITY,INCLINATION,RA_OF_ASC_NODE,ARG_OF_PERICENTER,MEAN_ANOMALY,BSTAR,MEAN_MOTION_DOT,MEAN_MOTION_DDOT,TLE_LINE0,TLE_LINE1,TLE_LINE2,SEMIMAJOR_AXIS,PERIOD,APOGEE,PERIGEE,DECAYED
52639.0,STARLINK-3968,PAYLOAD,2023-06-21 17:16:42,15.08833629,0.000107,53.2184,32.2454,109.174,250.9368,2.3901e-05,9.3e-07,0.0,0 STARLINK-3968,1 52639U 22052AT  23172.71994046  .00000093  00000-0  23901-4 0  9992,2 52639  53.2184  32.2454 0001070 109.1740 250.9368 15.08833629 61757,6917.9,95.438,540.505,539.025,0.0
52639.0,STARLINK-3968,PAYLOAD,2023-06-21 20:27:28,15.08839601,0.0001104,53.218,31.6487,118.8959,241.2144,6.4716e-05,7.42e-06,0.0,0 STARLINK-3968,1 52639U 22052AT  23172.85241525  .00000742  00000-0  64716-4 0  9994,2 52639  53.2180  31.6487 0001104 118.8959 241.2144 15.08839601 62201,6917.882,95.438,540.51,538.983,0.0
52639.0,STARLINK-3968,PAYLOAD,2023-06-22 01:13:37,15.0884707,9.95e-05,53.2184,30.7564,105.0794,255.0308,5.6626e-05,6.14e-06,0.0,0 STARLINK-3968,1 52639U 22052AT  23173.05113087  .00000614  00000-0  56626-4 0  9997,2 52639  53.2184  30.7564 0000995 105.0794 255.0308 15.08847070 61802,6917.859,95.437,540.412,539.035,0.0
52639.0,STARLINK-3968,PAYLOAD,2023-06-22 07:35:10,15.08839649,9.9e-05,53.2186,29.5656,94.3317,265.7788,3.017e-05,1.92e-06,0.0,0 STARLINK-3968,1 52639U 22052AT  23173.31609696  .00000192  00000-0  30170-4 0  9999,2 52639  53.2186  29.5656 0000990  94.3317 265.7788 15.08839649 61845,6917.881,95.438,540.431,539.062,0.0
52639.0,STARLINK-3968,PAYLOAD,2023-06-23 13:47:30,15.08836628,9.1e-05,53.2189,23.9179,99.2302,260.8793,0.00010364,1.362e-05,0.0,0 STARLINK-3968,1 52639U 22052AT  23174.57466007  .00001362  00000-0  10364-3 0  9997,2 52639  53.2189  23.9179 0000910  99.2302 260.8793 15.08836628 62034,6917.891,95.438,540.385,539.126,0.0
52639.0,STARLINK-3968,PAYLOAD,2023-06-24 23:10:35,15.08850395,9.53e-05,53.2178,17.673,101.3239,258.786,6.3717e-05,7.27e-06,0.0,0 STARLINK-3968,1 52639U 22052AT  23175.96569184  .00000727  00000-0  63717-4 0  9996,2 52639  53.2178  17.6730 0000953 101.3239 258.7860 15.08850395 62247,6917.849,95.437,540.373,539.054,0.0
52639.0,STARLINK-3968,PAYLOAD,2023-06-25 07:07:31,15.08845193,9.43e-05,53.2168,16.186,101.4486,258.6612,0.00010635,1.405e-05,0.0,0 STARLINK-3968,1 52639U 22052AT  23176.29689525  .00001405  00000-0  10635-3 0  9999,2 52639  53.2168  16.1860 0000943 101.4486 258.6612 15.08845193 62297,6917.865,95.437,540.382,539.077,0.0
52639.0,STARLINK-3968,PAYLOAD,2023-06-25 16:39:50,15.08839605,0.0001163,53.2165,14.4014,102.1349,257.9773,8.8891e-05,1.127e-05,0.0,0 STARLINK-3968,1 52639U 22052AT  23176.69433925  .00001127  00000-0  88891-4 0  9995,2 52639  53.2165  14.4014 0001163 102.1349 257.9773 15.08839605 62355,6917.882,95.438,540.551,538.942,0.0
52639.0,STARLINK-3968,PAYLOAD,2023-06-26 16:30:38,15.08835794,0.0001103,53.2183,9.9419,97.399,262.7127,1.9109e-05,1.6e-07,0.0,0 STARLINK-3968,1 52639U 22052AT  23177.68794488  .00000016  00000-0  19109-4 0  9991,2 52639  53.2183   9.9419 0001103  97.3990 262.7127 15.08835794 62503,6917.893,95.438,540.521,538.995,0.0
52639.0,STARLINK-3968,PAYLOAD,2023-06-27 19:32:11,15.08842955,9.35e-05,53.2178,4.8873,84.7264,275.3835,0.00012941,1.773e-05,0.0,0 STARLINK-3968,1 52639U 22052AT  23178.81402058  .00001773  00000-0  12941-3 0  9993,2 52639  53.2178   4.8873 0000935  84.7264 275.3835 15.08842955 62672,6917.871,95.437,540.383,539.09,0.0
52639.0,STARLINK-3968,PAYLOAD,2023-06-28 05:04:30,15.08831427,9.42e-05,53.2177,3.1028,85.205,274.905,0.00017804,2.546e-05,0.0,0 STARLINK-3968,1 52639U 22052AT  23179.21146852  .00002546  00000-0  17804-3 0  9997,2 52639  53.2177   3.1028 0000942  85.2050 274.9050 15.08831427 62735,6917.907,95.438,540.423,539.12,0.0
52639.0,STARLINK-3968,PAYLOAD,2023-06-29 11:16:50,15.08837551,8.35e-05,53.2179,357.4531,85.9277,274.1811,0.00011597,1.558e-05,0.0,0 STARLINK-3968,1 52639U 22052AT  23180.47002744  .00001558  00000-0  11597-3 0  9993,2 52639  53.2179 357.4531 0000835  85.9277 274.1811 15.08837551 62922,6917.888,95.438,540.331,539.175,0.0
52639.0,STARLINK-3968,PAYLOAD,2023-06-30 15:53:46,15.08841403,0.0001148,53.2194,352.102,84.79,275.3224,5.8803e-05,6.48e-06,0.0,0 STARLINK-3968,1 52639U 22052AT  23181.66234714  .00000648  00000-0  58803-4 0  9990,2 52639  53.2194 352.1020 0001148  84.7900 275.3224 15.08841403 63105,6917.876,95.437,540.535,538.947,0.0
52639.0,STARLINK-3968,PAYLOAD,2023-07-01 17:19:55,15.08892402,7.48e-05,53.2189,347.3444,78.2451,281.8625,-0.00069971,-0.00011422,0.0,0 STARLINK-3968,1 52639U 22052AT  23182.72217163 -.00011422  00000-0 -69971-3 0  9998,2 52639  53.2189 347.3444 0000748  78.2451 281.8625 15.08892402 63268,6917.72,95.434,540.103,539.068,0.0
52639.0,STARLINK-3968,PAYLOAD,2023-07-01 20:30:42,15.08847466,0.0001134,53.2191,346.7492,93.6275,266.4847,5.0408e-05,5.15e-06,0.0,0 STARLINK-3968,1 52639U 22052AT  23182.85466170  .00000515  00000-0  50408-4 0  9991,2 52639  53.2191 346.7492 0001134  93.6275 266.4847 15.08847466 63289,6917.858,95.437,540.507,538.938,0.0
52639.0,STARLINK-3968,PAYLOAD,2023-07-02 04:27:38,15.08838087,9.19e-05,53.2188,345.2618,105.6841,254.4252,9.1559e-05,1.17e-05,0.0,0 STARLINK-3968,1 52639U 22052AT  23183.18586619  .00001170  00000-0  91559-4 0  9999,2 52639  53.2188 345.2618 0000919 105.6841 254.4252 15.08838087 63334,6917.886,95.438,540.387,539.115,0.0
52639.0,STARLINK-3968,PAYLOAD,2023-07-03 10:39:58,15.08840235,9.79e-05,53.219,339.6092,102.4143,257.6959,4.6906e-05,4.59e-06,0.0,0 STARLINK-3968,1 52639U 22052AT  23184.44442465  .00000459  00000-0  46906-4 0  9994,2 52639  53.2190 339.6092 0000979 102.4143 257.6959 15.08840235 63524,6917.88,95.438,540.422,539.067,0.0
52639.0,STARLINK-3968,PAYLOAD,2023-07-04 16:52:18,15.08838982,9.41e-05,53.2183,333.9618,89.6548,270.4552,3.7064e-05,3.02e-06,0.0,0 STARLINK-3968,1 52639U 22052AT  23185.70298656  .00000302  00000-0  37064-4 0  9997,2 52639  53.2183 333.9618 0000941  89.6548 270.4552 15.08838982 63710,6917.884,95.438,540.399,539.098,0.0
52639.0,STARLINK-3968,PAYLOAD,2023-07-05 16:43:05,15.08834755,0.0001012,53.2194,329.5044,97.7322,262.3785,-7.6173e-06,-4.09e-06,0.0,0 STARLINK-3968,1 52639U 22052AT  23186.69659328 -.00000409  00000-0 -76173-5 0  9998,2 52639  53.2194 329.5044 0001012  97.7322 262.3785 15.08834755 63864,6917.896,95.438,540.462,539.061,0.0
52639.0,STARLINK-3968,PAYLOAD,2023-07-07 02:06:11,15.08841185,8.8e-05,53.2184,323.2573,86.4144,273.6949,7.9493e-05,9.78e-06,0.0,0 STARLINK-3968,1 52639U 22052AT  23188.08763132  .00000978  00000-0  79493-4 0  9998,2 52639  53.2184 323.2573 0000880  86.4144 273.6949 15.08841185 64076,6917.877,95.437,540.351,539.133,0.0
52639.0,STARLINK-3968,PAYLOAD,2023-07-08 08:18:30,15.08845296,9.8e-05,53.2179,317.6105,91.365,268.7454,9.5871e-05,1.239e-05,0.0,0 STARLINK-3968,1 52639U 22052AT  23189.34618952  .00001239  00000-0  95871-4 0  9996,2 52639  53.2179 317.6105 0000980  91.3650 268.7454 15.08845296 64260,6917.864,95.437,540.407,539.051,0.0
52639.0,STARLINK-3968,PAYLOAD,2023-07-09 01:47:45,15.08838777,7.87e-05,53.2178,314.3353,90.262,269.8462,3.291e-06,-2.35e-06,0.0,0 STARLINK-3968,1 52639U 22052AT  23190.07483372 -.00000235  00000-0  32910-5 0  9996,2 52639  53.2178 314.3353 0000787  90.2620 269.8462 15.08838777 64377,6917.884,95.438,540.294,539.205,0.0
52639.0,STARLINK-3968,PAYLOAD,2023-07-10 15:57:00,15.08849952,9.29e-05,53.2184,307.1994,93.5685,266.5413,8.6591e-05,1.091e-05,0.0,0 STARLINK-3968,1 52639U 22052AT  23191.66458556  .00001091  00000-0  86591-4 0  9991,2 52639  53.2184 307.1994 0000929  93.5685 266.5413 15.08849952 64614,6917.85,95.437,540.358,539.072,0.0
52639.0,STARLINK-3968,PAYLOAD,2023-07-11 07:50:52,15.08832998,0.000106,53.2187,304.2247,93.8238,266.2876,0.00010194,1.335e-05,0.0,0 STARLINK-3968,1 52639U 22052AT  23192.32699596  .00001335  00000-0  10194-3 0  9992,2 52639  53.2187 304.2247 0001060  93.8238 266.2876 15.08832998 64713,6917.902,95.438,540.5,539.033,0.0
52639.0,STARLINK-3968,PAYLOAD,2023-07-11 15:47:47,15.08840045,0.0001029,53.2187,302.7378,92.0489,268.0621,9.8295e-05,1.277e-05,0.0,0 STARLINK-3968,1 52639U 22052AT  23192.65819278  .00001277  00000-0  98295-4 0  9993,2 52639  53.2187 302.7378 0001029  92.0489 268.0621 15.08840045 64760,6917.88,95.438,540.457,539.033,0.0
52639.0,STARLINK-3968,PAYLOAD,2023-07-12 06:06:16,15.08839637,0.0001064,53.2187,300.0614,94.993,265.1184,-2.952e-05,-7.58e-06,0.0,0 STARLINK-3968,1 52639U 22052AT  23193.25435790 -.00000758  00000-0 -29520-4 0  9993,2 52639  53.2187 300.0614 0001064  94.9930 265.1184 15.08839637 64852,6917.881,95.438,540.483,539.01,0.0
52639.0,STARLINK-3968,PAYLOAD,2023-07-12 14:03:11,15.08844708,0.0001027,53.2184,298.5767,86.1329,273.9781,3.122e-05,2.09e-06,0.0,0 STARLINK-3968,1 52639U 22052AT  23193.58555269  .00000209  00000-0  31220-4 0  9992,2 52639  53.2184 298.5767 0001027  86.1329 273.9781 15.08844708 64904,6917.866,95.437,540.441,539.021,0.0
52639.0,STARLINK-3968,PAYLOAD,2023-07-13 17:04:45,15.08840816,9.33e-05,53.2177,293.5225,94.4558,265.6541,5.9406e-05,6.58e-06,0.0,0 STARLINK-3968,1 52639U 22052AT  23194.71163560  .00000658  00000-0  59406-4 0  9991,2 52639  53.2177 293.5225 0000933  94.4558 265.6541 15.08840816 65078,6917.878,95.438,540.388,539.097,0.0
52639.0,STARLINK-3968,PAYLOAD,2023-07-15 00:52:28,15.08834237,9.63e-05,53.2175,287.5749,86.1614,273.9488,5.0116e-05,5.1e-06,0.0,0 STARLINK-3968,1 52639U 22052AT  23196.03644255  .00000510  00000-0  50116-4 0  9999,2 52639  53.2175 287.5749 0000963  86.1614 273.9488 15.08834237 65278,6917.898,95.438,540.429,539.097,0.0
52639.0,STARLINK-3968,PAYLOAD,2023-07-15 13:35:33,15.08842817,0.0001003,53.2175,285.1959,91.2218,268.8889,0.0001501,2.102e-05,0.0,0 STARLINK-3968,1 52639U 22052AT  23196.56635601  .00002102  00000-0  15010-3 0  9994,2 52639  53.2175 285.1959 0001003  91.2218 268.8889 15.08842817 65358,6917.872,95.437,540.431,539.043,0.0
